{"type": "FeatureCollection", "features": [ {"type": "Feature", "properties": {"norad_id": 28659, "name": "DIRECTV 8", "group": "intelsat", "lat": -0.011564202034341812, "lon": -51.46522691013397, "alt_km": 35778.525545186996, "timestamp": "2025-12-04T23:34:05.398328+00:00", "meta": {"OBJECT_NAME": "DIRECTV 8", "OBJECT_ID": "2005-019A", "EPOCH": "2025-12-04T09:44:09.105216", "MEAN_MOTION": 1.00271046, "ECCENTRICITY": 0.0003266, "INCLINATION": 0.0176, "RA_OF_ASC_NODE": 322.8972, "ARG_OF_PERICENTER": 289.5965, "MEAN_ANOMALY": 207.9778, "EPHEMERIS_TYPE": 0, "CLASSIFICATION_TYPE": "U", "NORAD_CAT_ID": 28659, "ELEMENT_SET_NO": 999, "REV_AT_EPOCH": 7512, "BSTAR": 0, "MEAN_MOTION_DOT": 1.6e-07, "MEAN_MOTION_DDOT": 0}, "tle": {"line1": "1 28659U 05019A   25338.40566094  .00000016  00000+0  00000+0 0  9995", "line2": "2 28659   0.0176 322.8972 0003266 289.5965 207.9778  1.00271046 75126"}}, "geometry": {"type": "Point", "coordinates": [-51.46522691013397, -0.011564202034341812]}}, {"type": "Feature", "properties": {"norad_id": 28702, "name": "GALAXY 28 (G-28)", "group": "intelsat", "lat": -2.7293381505839243, "lon": -21.121794867888987, "alt_km": 35785.58293291941, "timestamp": "2025-12-04T23:34:05.398340+00:00", "meta": {"OBJECT_NAME": "GALAXY 28 (G-28)", "OBJECT_ID": "2005-022A", "EPOCH": "2025-12-04T13:18:14.537952", "MEAN_MOTION": 1.00272119, "ECCENTRICITY": 0.0002636, "INCLINATION": 2.7977, "RA_OF_ASC_NODE": 81.3766, "ARG_OF_PERICENTER": 171.5466, "MEAN_ANOMALY": 291.5686, "EPHEMERIS_TYPE": 0, "CLASSIFICATION_TYPE": "U", "NORAD_CAT_ID": 28702, "ELEMENT_SET_NO": 999, "REV_AT_EPOCH": 5002, "BSTAR": 0, "MEAN_MOTION_DOT": -1.74e-06, "MEAN_MOTION_DDOT": 0}, "tle": {"line1": "1 28702U 05022A   25338.55433493 -.00000174  00000+0  00000+0 0  9996", "line2": "2 28702   2.7977  81.3766 0002636 171.5466 291.5686  1.00272119 50028"}}, "geometry": {"type": "Point", "coordinates": [-21.121794867888987, -2.7293381505839243]}}, {"type": "Feature", "properties": {"norad_id": 29236, "name": "GALAXY 16 (G-16)", "group": "intelsat", "lat": 0.008117008933924036, "lon": -31.425947476811242, "alt_km": 35782.46923079737, "timestamp": "2025-12-04T23:34:05.398352+00:00", "meta": {"OBJECT_NAME": "GALAXY 16 (G-16)", "OBJECT_ID": "2006-023A", "EPOCH": "2025-12-04T09:49:53.556096", "MEAN_MOTION": 1.00271171, "ECCENTRICITY": 0.0002953, "INCLINATION": 0.0259, "RA_OF_ASC_NODE": 211.8761, "ARG_OF_PERICENTER": 44.3815, "MEAN_ANOMALY": 225.6909, "EPHEMERIS_TYPE": 0, "CLASSIFICATION_TYPE": "U", "NORAD_CAT_ID": 29236, "ELEMENT_SET_NO": 999, "REV_AT_EPOCH": 7102, "BSTAR": 0, "MEAN_MOTION_DOT": -1.12e-06, "MEAN_MOTION_DDOT": 0}, "tle": {"line1": "1 29236U 06023A   25338.40964764 -.00000112  00000+0  00000+0 0  9997", "line2": "2 29236   0.0259 211.8761 0002953  44.3815 225.6909  1.00271171 71023"}}, "geometry": {"type": "Point", "coordinates": [-31.425947476811242, 0.008117008933924036]}}, {"type": "Feature", "properties": {"norad_id": 29494, "name": "DIRECTV 9S", "group": "intelsat", "lat": -1.7125927486113943, "lon": -33.63050443454544, "alt_km": 35782.59529408651, "timestamp": "2025-12-04T23:34:05.398364+00:00", "meta": {"OBJECT_NAME": "DIRECTV 9S", "OBJECT_ID": "2006-043A", "EPOCH": "2025-12-04T13:14:44.871936", "MEAN_MOTION": 1.00270512, "ECCENTRICITY": 0.0003237, "INCLINATION": 1.9176, "RA_OF_ASC_NODE": 83.2962, "ARG_OF_PERICENTER": 170.3541, "MEAN_ANOMALY": 277.4541, "EPHEMERIS_TYPE": 0, "CLASSIFICATION_TYPE": "U", "NORAD_CAT_ID": 29494, "ELEMENT_SET_NO": 999, "REV_AT_EPOCH": 4943, "BSTAR": 0, "MEAN_MOTION_DOT": -9.9e-07, "MEAN_MOTION_DDOT": 0}, "tle": {"line1": "1 29494U 06043A   25338.55190824 -.00000099  00000+0  00000+0 0  9993", "line2": "2 29494   1.9176  83.2962 0003237 170.3541 277.4541  1.00270512 49438"}}, "geometry": {"type": "Point", "coordinates": [-33.63050443454544, -1.7125927486113943]}}, {"type": "Feature", "properties": {"norad_id": 31307, "name": "GALAXY 17 (G-17)", "group": "intelsat", "lat": -2.437865857746604, "lon": -17.385708055844848, "alt_km": 35792.315184581355, "timestamp": "2025-12-04T23:34:05.398375+00:00", "meta": {"OBJECT_NAME": "GALAXY 17 (G-17)", "OBJECT_ID": "2007-016B", "EPOCH": "2025-12-04T13:19:21.929952", "MEAN_MOTION": 1.00270292, "ECCENTRICITY": 0.0006117, "INCLINATION": 2.478, "RA_OF_ASC_NODE": 82.3782, "ARG_OF_PERICENTER": 157.9017, "MEAN_ANOMALY": 308.189, "EPHEMERIS_TYPE": 0, "CLASSIFICATION_TYPE": "U", "NORAD_CAT_ID": 31307, "ELEMENT_SET_NO": 999, "REV_AT_EPOCH": 6785, "BSTAR": 0, "MEAN_MOTION_DOT": -1.93e-06, "MEAN_MOTION_DDOT": 0}, "tle": {"line1": "1 31307U 07016B   25338.55511493 -.00000193  00000+0  00000+0 0  9994", "line2": "2 31307   2.4780  82.3782 0006117 157.9017 308.1890  1.00270292 67850"}}, "geometry": {"type": "Point", "coordinates": [-17.385708055844848, -2.437865857746604]}}, {"type": "Feature", "properties": {"norad_id": 31862, "name": "DIRECTV 10", "group": "intelsat", "lat": 2.615697044300472e-05, "lon": -35.23334064565209, "alt_km": 35785.964523231436, "timestamp": "2025-12-04T23:34:05.398388+00:00", "meta": {"OBJECT_NAME": "DIRECTV 10", "OBJECT_ID": "2007-032A", "EPOCH": "2025-12-04T13:14:14.921376", "MEAN_MOTION": 1.00273825, "ECCENTRICITY": 3.87e-05, "INCLINATION": 0.0007, "RA_OF_ASC_NODE": 238.2855, "ARG_OF_PERICENTER": 340.2831, "MEAN_ANOMALY": 310.8251, "EPHEMERIS_TYPE": 0, "CLASSIFICATION_TYPE": "U", "NORAD_CAT_ID": 31862, "ELEMENT_SET_NO": 999, "REV_AT_EPOCH": 4364, "BSTAR": 0, "MEAN_MOTION_DOT": -8.9e-07, "MEAN_MOTION_DDOT": 0}, "tle": {"line1": "1 31862U 07032A   25338.55156159 -.00000089  00000+0  00000+0 0  9996", "line2": "2 31862   0.0007 238.2855 0000387 340.2831 310.8251  1.00273825 43646"}}, "geometry": {"type": "Point", "coordinates": [-35.23334064565209, 2.615697044300472e-05]}}, {"type": "Feature", "properties": {"norad_id": 32253, "name": "INTELSAT 11 (IS-11)", "group": "intelsat", "lat": -2.806087686952864, "lon": -32.514325554869274, "alt_km": 36129.44950260019, "timestamp": "2025-12-04T23:34:05.398403+00:00", "meta": {"OBJECT_NAME": "INTELSAT 11 (IS-11)", "OBJECT_ID": "2007-044B", "EPOCH": "2025-12-04T13:15:29.800800", "MEAN_MOTION": 0.99047143, "ECCENTRICITY": 0.0009295, "INCLINATION": 3.0574, "RA_OF_ASC_NODE": 81.0671, "ARG_OF_PERICENTER": 161.8583, "MEAN_ANOMALY": 291.3189, "EPHEMERIS_TYPE": 0, "CLASSIFICATION_TYPE": "U", "NORAD_CAT_ID": 32253, "ELEMENT_SET_NO": 999, "REV_AT_EPOCH": 6652, "BSTAR": 0, "MEAN_MOTION_DOT": 2.5e-07, "MEAN_MOTION_DDOT": 0}, "tle": {"line1": "1 32253U 07044B   25338.55242825  .00000025  00000+0  00000+0 0  9999", "line2": "2 32253   3.0574  81.0671 0009295 161.8583 291.3189  0.99047143 66525"}}, "geometry": {"type": "Point", "coordinates": [-32.514325554869274, -2.806087686952864]}}, {"type": "Feature", "properties": {"norad_id": 32388, "name": "HORIZONS-2", "group": "intelsat", "lat": -2.0888771277886526, "lon": -6.168630505345331, "alt_km": 35785.98912814167, "timestamp": "2025-12-04T23:34:05.398414+00:00", "meta": {"OBJECT_NAME": "HORIZONS-2", "OBJECT_ID": "2007-063B", "EPOCH": "2025-12-04T13:22:29.131104", "MEAN_MOTION": 1.00271685, "ECCENTRICITY": 0.0005031, "INCLINATION": 2.0989, "RA_OF_ASC_NODE": 83.0494, "ARG_OF_PERICENTER": 182.0483, "MEAN_ANOMALY": 295.3707, "EPHEMERIS_TYPE": 0, "CLASSIFICATION_TYPE": "U", "NORAD_CAT_ID": 32388, "ELEMENT_SET_NO": 999, "REV_AT_EPOCH": 6586, "BSTAR": 0, "MEAN_MOTION_DOT": -2.4e-06, "MEAN_MOTION_DDOT": 0}, "tle": {"line1": "1 32388U 07063B   25338.55728161 -.00000240  00000+0  00000+0 0  9991", "line2": "2 32388   2.0989  83.0494 0005031 182.0483 295.3707  1.00271685 65865"}}, "geometry": {"type": "Point", "coordinates": [-6.168630505345331, -2.0888771277886526]}}, {"type": "Feature", "properties": {"norad_id": 32729, "name": "DIRECTV 11", "group": "intelsat", "lat": -0.0006518770003502848, "lon": -31.64007942401574, "alt_km": 35785.87296952232, "timestamp": "2025-12-04T23:34:05.398426+00:00", "meta": {"OBJECT_NAME": "DIRECTV 11", "OBJECT_ID": "2008-013A", "EPOCH": "2025-12-04T09:49:46.066080", "MEAN_MOTION": 1.00271822, "ECCENTRICITY": 2.82e-05, "INCLINATION": 0.0106, "RA_OF_ASC_NODE": 92.3257, "ARG_OF_PERICENTER": 156.2768, "MEAN_ANOMALY": 233.1284, "EPHEMERIS_TYPE": 0, "CLASSIFICATION_TYPE": "U", "NORAD_CAT_ID": 32729, "ELEMENT_SET_NO": 999, "REV_AT_EPOCH": 4364, "BSTAR": 0, "MEAN_MOTION_DOT": -1.11e-06, "MEAN_MOTION_DDOT": 0}, "tle": {"line1": "1 32729U 08013A   25338.40956095 -.00000111  00000+0  00000+0 0  9996", "line2": "2 32729   0.0106  92.3257 0000282 156.2768 233.1284  1.00271822 43640"}}, "geometry": {"type": "Point", "coordinates": [-31.64007942401574, -0.0006518770003502848]}}, {"type": "Feature", "properties": {"norad_id": 32951, "name": "GALAXY 18 (G-18)", "group": "intelsat", "lat": -0.025431247887646197, "lon": -55.42522058198238, "alt_km": 35778.15533541153, "timestamp": "2025-12-04T23:34:05.398438+00:00", "meta": {"OBJECT_NAME": "GALAXY 18 (G-18)", "OBJECT_ID": "2008-024A", "EPOCH": "2025-12-04T14:02:38.764032", "MEAN_MOTION": 1.00268646, "ECCENTRICITY": 0.000325, "INCLINATION": 0.0161, "RA_OF_ASC_NODE": 1.1901, "ARG_OF_PERICENTER": 253.0124, "MEAN_ANOMALY": 267.1148, "EPHEMERIS_TYPE": 0, "CLASSIFICATION_TYPE": "U", "NORAD_CAT_ID": 32951, "ELEMENT_SET_NO": 999, "REV_AT_EPOCH": 4390, "BSTAR": 0, "MEAN_MOTION_DOT": 4e-07, "MEAN_MOTION_DDOT": 0}, "tle": {"line1": "1 32951U 08024A   25338.58517088  .00000040  00000+0  00000+0 0  9999", "line2": "2 32951   0.0161   1.1901 0003250 253.0124 267.1148  1.00268646 43907"}}, "geometry": {"type": "Point", "coordinates": [-55.42522058198238, -0.025431247887646197]}}]}